start=new Date('2022-06-23T00:00:00.000Z').valueOf();
sats=[{"COUNTRY_CODE":"US","PERIAPSIS":"546.159","EPOCH":"2022-06-22T18:50:00.586464","MEAN_ELEMENT_THEORY":"SGP4","MEAN_MOTION_DOT":"-0.00000031","APOAPSIS":"548.311","ELEMENT_SET_NO":"999","REF_FRAME":"TEME","MEAN_ANOMALY":"299.3203","RA_OF_ASC_NODE":"208.5187","BSTAR":"0.00001685000000","MEAN_MOTION":"15.06393077","CENTER_NAME":"EARTH","OBJECT_NAME":"STARLINK-1718","RCS_SIZE":"LARGE","ARG_OF_PERICENTER":"60.7941","LAUNCH_DATE":"2020-10-18","CLASSIFICATION_TYPE":"U","FILE":"3500001","ECCENTRICITY":"0.00015540","PERIOD":"95.593","INCLINATION":"53.0521","OBJECT_ID":"2020-073E","SEMIMAJOR_AXIS":"6925.370","DECAY_DATE":null,"REV_AT_EPOCH":"9276","SITE":"AFETR","OBJECT_TYPE":"PAYLOAD","NORAD_CAT_ID":"46674","MEAN_MOTION_DDOT":"0.0000000000000","TIME_SYSTEM":"UTC","EPHEMERIS_TYPE":"0","GP_ID":"206647200","TLE_LINE2":"2 46674  53.0521 208.5187 0001554  60.7941 299.3203 15.06393077 92761","TLE_LINE1":"1 46674U 20073E   22173.78472901 -.00000031  00000-0  16850-4 0  9991"},{"MEAN_ELEMENT_THEORY":"SGP4","EPOCH":"2022-06-22T10:46:59.973600","COUNTRY_CODE":"US","PERIAPSIS":"545.958","APOAPSIS":"548.499","MEAN_MOTION_DOT":"0.00000032","RA_OF_ASC_NODE":"210.0302","BSTAR":"0.00002108400000","MEAN_ANOMALY":"306.6415","REF_FRAME":"TEME","ELEMENT_SET_NO":"999","RCS_SIZE":"LARGE","OBJECT_NAME":"STARLINK-1720","CENTER_NAME":"EARTH","MEAN_MOTION":"15.06395151","LAUNCH_DATE":"2020-10-18","ARG_OF_PERICENTER":"53.4743","ECCENTRICITY":"0.00018340","CLASSIFICATION_TYPE":"U","FILE":"3499789","INCLINATION":"53.0527","PERIOD":"95.592","DECAY_DATE":null,"SEMIMAJOR_AXIS":"6925.363","OBJECT_ID":"2020-073F","REV_AT_EPOCH":"9271","SITE":"AFETR","NORAD_CAT_ID":"46675","OBJECT_TYPE":"PAYLOAD","MEAN_MOTION_DDOT":"0.0000000000000","GP_ID":"206618068","EPHEMERIS_TYPE":"0","TIME_SYSTEM":"UTC","TLE_LINE1":"1 46675U 20073F   22173.44930525  .00000032  00000-0  21084-4 0  9991","TLE_LINE2":"2 46675  53.0527 210.0302 0001834  53.4743 306.6415 15.06395151 92712"},{"SITE":"AFETR","OBJECT_ID":"2020-073H","SEMIMAJOR_AXIS":"6925.352","DECAY_DATE":null,"REV_AT_EPOCH":"9266","TIME_SYSTEM":"UTC","GP_ID":"206619320","EPHEMERIS_TYPE":"0","TLE_LINE2":"2 46677  53.0540 211.5232 0001663  53.7738 306.3404 15.06398913 92662","TLE_LINE1":"1 46677U 20073H   22173.11387978  .00000264  00000-0  36640-4 0  9996","OBJECT_TYPE":"PAYLOAD","NORAD_CAT_ID":"46677","MEAN_MOTION_DDOT":"0.0000000000000","MEAN_ANOMALY":"306.3404","ELEMENT_SET_NO":"999","REF_FRAME":"TEME","BSTAR":"0.00003664000000","RA_OF_ASC_NODE":"211.5232","EPOCH":"2022-06-22T02:43:59.212992","COUNTRY_CODE":"US","PERIAPSIS":"546.065","MEAN_ELEMENT_THEORY":"SGP4","MEAN_MOTION_DOT":"0.00000264","APOAPSIS":"548.369","FILE":"3499789","CLASSIFICATION_TYPE":"U","ECCENTRICITY":"0.00016630","INCLINATION":"53.0540","PERIOD":"95.592","CENTER_NAME":"EARTH","MEAN_MOTION":"15.06398913","RCS_SIZE":"LARGE","OBJECT_NAME":"STARLINK-1766","ARG_OF_PERICENTER":"53.7738","LAUNCH_DATE":"2020-10-18"},{"MEAN_ANOMALY":"304.7669","REF_FRAME":"TEME","ELEMENT_SET_NO":"999","RA_OF_ASC_NODE":"190.0182","BSTAR":"0.00070354000000","EPOCH":"2022-06-22T10:49:39.922464","COUNTRY_CODE":"US","PERIAPSIS":"546.076","MEAN_ELEMENT_THEORY":"SGP4","MEAN_MOTION_DOT":"0.00010197","APOAPSIS":"548.698","CLASSIFICATION_TYPE":"U","FILE":"3499664","ECCENTRICITY":"0.00018930","INCLINATION":"53.0528","PERIOD":"95.596","CENTER_NAME":"EARTH","MEAN_MOTION":"15.06343348","OBJECT_NAME":"STARLINK-1773","RCS_SIZE":"LARGE","ARG_OF_PERICENTER":"55.3499","LAUNCH_DATE":"2020-10-18","SITE":"AFETR","OBJECT_ID":"2020-073K","SEMIMAJOR_AXIS":"6925.522","DECAY_DATE":null,"REV_AT_EPOCH":"9348","TIME_SYSTEM":"UTC","GP_ID":"206594398","EPHEMERIS_TYPE":"0","TLE_LINE2":"2 46679  53.0528 190.0182 0001893  55.3499 304.7669 15.06343348 93480","TLE_LINE1":"1 46679U 20073K   22173.45115651  .00010197  00000-0  70354-3 0  9997","OBJECT_TYPE":"PAYLOAD","NORAD_CAT_ID":"46679","MEAN_MOTION_DDOT":"0.0000000000000"},{"SITE":"AFETR","REV_AT_EPOCH":"9256","DECAY_DATE":null,"SEMIMAJOR_AXIS":"6925.387","OBJECT_ID":"2020-073L","TLE_LINE1":"1 46680U 20073L   22173.85154298 -.00000938  00000-0 -44092-4 0  9998","TLE_LINE2":"2 46680  53.0548 223.2244 0001672  61.8047 298.3110 15.06387455 92562","GP_ID":"206647700","EPHEMERIS_TYPE":"0","TIME_SYSTEM":"UTC","MEAN_MOTION_DDOT":"0.0000000000000","NORAD_CAT_ID":"46680","OBJECT_TYPE":"PAYLOAD","BSTAR":"-0.00004409200000","RA_OF_ASC_NODE":"223.2244","MEAN_ANOMALY":"298.3110","REF_FRAME":"TEME","ELEMENT_SET_NO":"999","APOAPSIS":"548.410","MEAN_MOTION_DOT":"-0.00000938","MEAN_ELEMENT_THEORY":"SGP4","EPOCH":"2022-06-22T20:26:13.313472","COUNTRY_CODE":"US","PERIAPSIS":"546.094","INCLINATION":"53.0548","PERIOD":"95.593","ECCENTRICITY":"0.00016720","CLASSIFICATION_TYPE":"U","FILE":"3500001","LAUNCH_DATE":"2020-10-18","ARG_OF_PERICENTER":"61.8047","RCS_SIZE":"LARGE","OBJECT_NAME":"STARLINK-1774","CENTER_NAME":"EARTH","MEAN_MOTION":"15.06387455"},{"SITE":"AFETR","OBJECT_ID":"2020-073M","DECAY_DATE":null,"SEMIMAJOR_AXIS":"6925.349","REV_AT_EPOCH":"9249","TIME_SYSTEM":"UTC","EPHEMERIS_TYPE":"0","GP_ID":"206618569","TLE_LINE2":"2 46681  53.0535 225.1318 0001711  51.2753 308.8389 15.06399875 92499","TLE_LINE1":"1 46681U 20073M   22173.42396001 -.00000419  00000-0 -92541-5 0  9999","OBJECT_TYPE":"PAYLOAD","NORAD_CAT_ID":"46681","MEAN_MOTION_DDOT":"0.0000000000000","ELEMENT_SET_NO":"999","REF_FRAME":"TEME","MEAN_ANOMALY":"308.8389","BSTAR":"-0.00000925410000","RA_OF_ASC_NODE":"225.1318","COUNTRY_CODE":"US","PERIAPSIS":"546.029","EPOCH":"2022-06-22T10:10:30.144864","MEAN_ELEMENT_THEORY":"SGP4","MEAN_MOTION_DOT":"-0.00000419","APOAPSIS":"548.399","FILE":"3499789","CLASSIFICATION_TYPE":"U","ECCENTRICITY":"0.00017110","PERIOD":"95.592","INCLINATION":"53.0535","CENTER_NAME":"EARTH","MEAN_MOTION":"15.06399875","OBJECT_NAME":"STARLINK-1775","RCS_SIZE":"LARGE","ARG_OF_PERICENTER":"51.2753","LAUNCH_DATE":"2020-10-18"},{"MEAN_ANOMALY":"314.0643","REF_FRAME":"TEME","ELEMENT_SET_NO":"999","RA_OF_ASC_NODE":"223.2279","BSTAR":"0.00002775900000","EPOCH":"2022-06-22T20:20:54.234816","COUNTRY_CODE":"US","PERIAPSIS":"546.058","MEAN_ELEMENT_THEORY":"SGP4","MEAN_MOTION_DOT":"0.00000132","APOAPSIS":"548.456","CLASSIFICATION_TYPE":"U","FILE":"3500001","ECCENTRICITY":"0.00017310","INCLINATION":"53.0554","PERIOD":"95.593","MEAN_MOTION":"15.06385767","CENTER_NAME":"EARTH","RCS_SIZE":"LARGE","OBJECT_NAME":"STARLINK-1776","ARG_OF_PERICENTER":"46.0489","LAUNCH_DATE":"2020-10-18","SITE":"AFETR","OBJECT_ID":"2020-073N","DECAY_DATE":null,"SEMIMAJOR_AXIS":"6925.392","REV_AT_EPOCH":"9256","TIME_SYSTEM":"UTC","GP_ID":"206648201","EPHEMERIS_TYPE":"0","TLE_LINE2":"2 46682  53.0554 223.2279 0001731  46.0489 314.0643 15.06385767 92561","TLE_LINE1":"1 46682U 20073N   22173.84784994  .00000132  00000-0  27759-4 0  9996","OBJECT_TYPE":"PAYLOAD","NORAD_CAT_ID":"46682","MEAN_MOTION_DDOT":"0.0000000000000"},{"MEAN_ELEMENT_THEORY":"SGP4","COUNTRY_CODE":"US","PERIAPSIS":"546.254","EPOCH":"2022-06-22T20:04:18.286464","APOAPSIS":"548.205","MEAN_MOTION_DOT":"-0.00000183","RA_OF_ASC_NODE":"208.2822","BSTAR":"0.00000662580000","ELEMENT_SET_NO":"999","REF_FRAME":"TEME","MEAN_ANOMALY":"281.2072","OBJECT_NAME":"STARLINK-1780","RCS_SIZE":"LARGE","MEAN_MOTION":"15.06394834","CENTER_NAME":"EARTH","LAUNCH_DATE":"2020-10-18","ARG_OF_PERICENTER":"78.9076","ECCENTRICITY":"0.00014090","FILE":"3500001","CLASSIFICATION_TYPE":"U","PERIOD":"95.592","INCLINATION":"53.0555","SEMIMAJOR_AXIS":"6925.364","DECAY_DATE":null,"OBJECT_ID":"2020-073Q","REV_AT_EPOCH":"9277","SITE":"AFETR","NORAD_CAT_ID":"46684","OBJECT_TYPE":"PAYLOAD","MEAN_MOTION_DDOT":"0.0000000000000","EPHEMERIS_TYPE":"0","GP_ID":"206648952","TIME_SYSTEM":"UTC","TLE_LINE1":"1 46684U 20073Q   22173.83632276 -.00000183  00000-0  66258-5 0  9997","TLE_LINE2":"2 46684  53.0555 208.2822 0001409  78.9076 281.2072 15.06394834 92778"},{"SITE":"AFETR","OBJECT_ID":"2020-073R","DECAY_DATE":null,"SEMIMAJOR_AXIS":"6925.348","REV_AT_EPOCH":"9252","TIME_SYSTEM":"UTC","EPHEMERIS_TYPE":"0","GP_ID":"206647201","TLE_LINE2":"2 46685  53.0533 224.2187 0001486  60.4225 299.6912 15.06400127 92526","TLE_LINE1":"1 46685U 20073R   22173.62574438 -.00000011  00000-0  18189-4 0  9999","OBJECT_TYPE":"PAYLOAD","NORAD_CAT_ID":"46685","MEAN_MOTION_DDOT":"0.0000000000000","MEAN_ANOMALY":"299.6912","REF_FRAME":"TEME","ELEMENT_SET_NO":"999","RA_OF_ASC_NODE":"224.2187","BSTAR":"0.00001818900000","EPOCH":"2022-06-22T15:01:04.314432","PERIAPSIS":"546.184","COUNTRY_CODE":"US","MEAN_ELEMENT_THEORY":"SGP4","MEAN_MOTION_DOT":"-0.00000011","APOAPSIS":"548.242","FILE":"3500001","CLASSIFICATION_TYPE":"U","ECCENTRICITY":"0.00014860","INCLINATION":"53.0533","PERIOD":"95.592","MEAN_MOTION":"15.06400127","CENTER_NAME":"EARTH","RCS_SIZE":"LARGE","OBJECT_NAME":"STARLINK-1781","ARG_OF_PERICENTER":"60.4225","LAUNCH_DATE":"2020-10-18"},{"PERIOD":"95.541","INCLINATION":"53.0548","ECCENTRICITY":"0.00015420","CLASSIFICATION_TYPE":"U","FILE":"3500001","LAUNCH_DATE":"2020-10-18","ARG_OF_PERICENTER":"59.0326","OBJECT_NAME":"STARLINK-1783","RCS_SIZE":"LARGE","MEAN_MOTION":"15.07213712","CENTER_NAME":"EARTH","RA_OF_ASC_NODE":"223.0969","BSTAR":"-0.00001640900000","REF_FRAME":"TEME","ELEMENT_SET_NO":"999","MEAN_ANOMALY":"301.0814","APOAPSIS":"545.788","MEAN_MOTION_DOT":"-0.00000534","MEAN_ELEMENT_THEORY":"SGP4","COUNTRY_CODE":"US","PERIAPSIS":"543.653","EPOCH":"2022-06-22T20:53:07.636992","TLE_LINE1":"1 46686U 20073S   22173.87022728 -.00000534  00000-0 -16409-4 0  9991","TLE_LINE2":"2 46686  53.0548 223.0969 0001542  59.0326 301.0814 15.07213712 92563","EPHEMERIS_TYPE":"0","GP_ID":"206647450","TIME_SYSTEM":"UTC","MEAN_MOTION_DDOT":"0.0000000000000","NORAD_CAT_ID":"46686","OBJECT_TYPE":"PAYLOAD","SITE":"AFETR","REV_AT_EPOCH":"9256","SEMIMAJOR_AXIS":"6922.856","DECAY_DATE":null,"OBJECT_ID":"2020-073S"}];
